[{"OBJECT_NAME":"STARLINK-30482","OBJECT_ID":"2023-146S","EPOCH":"2026-03-09T01:17:59.730720","MEAN_MOTION":15.02536077,"ECCENTRICITY":0.00013203,"INCLINATION":43.0044,"RA_OF_ASC_NODE":316.5431,"ARG_OF_PERICENTER":262.5413,"MEAN_ANOMALY":97.528,"EPHEMERIS_TYPE":0,"CLASSIFICATION_TYPE":"U","NORAD_CAT_ID":57907,"ELEMENT_SET_NO":999,"REV_AT_EPOCH":13592,"BSTAR":3.2654863e-5,"MEAN_MOTION_DOT":2.37e-6,"MEAN_MOTION_DDOT":0},{"OBJECT_NAME":"LEMUR-2-ROUNDTRIPPER","OBJECT_ID":"2025-009DG","EPOCH":"2026-03-09T23:04:13.111968","MEAN_MOTION":15.02085493,"ECCENTRICITY":0.00052564,"INCLINATION":97.7294,"RA_OF_ASC_NODE":151.904,"ARG_OF_PERICENTER":121.5792,"MEAN_ANOMALY":238.5946,"EPHEMERIS_TYPE":0,"CLASSIFICATION_TYPE":"U","NORAD_CAT_ID":62711,"ELEMENT_SET_NO":999,"REV_AT_EPOCH":6272,"BSTAR":0.00085047584,"MEAN_MOTION_DOT":0.00011123,"MEAN_MOTION_DDOT":0}]
